ONEWEB-0313             
1 49099U 21075AA  26140.39919948  .00000013  00000+0 -67178-6 0  9990
2 49099  87.9153  11.4058 0001914  86.8397 273.2953 13.17650920229931
ONEWEB-0314             
1 49100U 21075AB  26140.59339722  .00000026  00000+0  32542-4 0  9999
2 49100  87.9168  11.3362 0001846  95.9756 264.1586 13.17648654229933
ONEWEB-0315             
1 49101U 21075AC  26140.30569451 -.00000240  00000+0 -70343-3 0  9993
2 49101  87.8963 356.1884 0002156  89.9366 270.2009 13.12440542231516
ONEWEB-0316             
1 49102U 21075AD  26140.53976517 -.00000065  00000+0 -19726-3 0  9997
2 49102  87.9162 340.9602 0001902  89.6539 270.4812 13.18684751233564
ONEWEB-0317             
1 49103U 21075AE  26140.30907975 -.00000298  00000+0 -86382-3 0  9995
2 49103  87.8962 356.2112 0001163  71.5713 288.5542 13.12440898231532
ONEWEB-0318             
1 49104U 21075AF  26140.30876172 -.00000073  00000+0 -21858-3 0  9998
2 49104  87.9172 341.0051 0002099  91.2308 268.9065 13.18684555233494
ONEWEB-0319             
1 49105U 21075AG  26140.38076304 -.00000070  00000+0 -21469-3 0  9991
2 49105  87.9154  11.3972 0002393  89.6075 270.5331 13.17650375229945
ONEWEB-0323             
1 49106U 21075AH  26140.59540394  .00000323  00000+0  86236-3 0  9992
2 49106  87.8965 356.1358 0002254  95.5432 264.5953 13.12441049230937
ONEWEB-0329             
1 49107U 21075AJ  26140.38920300  .00000527  00000+0  13252-2 0  9992
2 49107  87.9155  11.3964 0001937  89.0116 271.1237 13.17647346229926
ONEWEB-0330             
1 49108U 21075AK  26140.33704200 -.00000030  00000+0 -11059-3 0  9992
2 49108  87.9160  11.4265 0001700  90.5699 269.5628 13.17648528229950
ONEWEB-0292             
1 49186U 21083A   26140.51308008  .00000253  00000+0  65703-3 0  9993
2 49186  87.8931 325.7548 0001953  91.9669 268.1684 13.13471252227294
ONEWEB-0303             
1 49187U 21083B   26140.30539146 -.00000061  00000+0 -18626-3 0  9991
2 49187  87.9164 341.0060 0002018  91.2015 268.9349 13.18684807226309
ONEWEB-0306             
1 49188U 21083C   26140.29527442  .00000031  00000+0  44983-4 0  9997
2 49188  87.9171 340.9941 0001642  86.1234 274.0086 13.18685036226347
ONEWEB-0307             
1 49189U 21083D   26140.50716261  .00000291  00000+0  76291-3 0  9995
2 49189  87.8941 325.7506 0001889  93.7365 266.3980 13.13468409227292
ONEWEB-0320             
1 49190U 21083E   26140.54313997 -.00000035  00000+0 -12107-3 0  9994
2 49190  87.9162 340.9660 0001773  86.4414 273.6921 13.18686223226337
ONEWEB-0321             
1 49191U 21083F   26140.62556571  .00000122  00000+0  26898-3 0  9998
2 49191  87.9171 279.9312 0001627  94.8550 265.2769 13.20770275233198
