[{"OBJECT_NAME":"ONEWEB-0313","OBJECT_ID":"2021-075AA","EPOCH":"2026-05-20T09:34:50.835072","MEAN_MOTION":13.1765092,"ECCENTRICITY":0.0001914,"INCLINATION":87.9153,"RA_OF_ASC_NODE":11.4058,"ARG_OF_PERICENTER":86.8397,"MEAN_ANOMALY":273.2953,"EPHEMERIS_TYPE":0,"CLASSIFICATION_TYPE":"U","NORAD_CAT_ID":49099,"ELEMENT_SET_NO":999,"REV_AT_EPOCH":22993,"BSTAR":-6.7178e-07,"MEAN_MOTION_DOT":1.3e-07,"MEAN_MOTION_DDOT":0.0},{"OBJECT_NAME":"ONEWEB-0314","OBJECT_ID":"2021-075AB","EPOCH":"2026-05-20T14:14:29.519808","MEAN_MOTION":13.17648654,"ECCENTRICITY":0.0001846,"INCLINATION":87.9168,"RA_OF_ASC_NODE":11.3362,"ARG_OF_PERICENTER":95.9756,"MEAN_ANOMALY":264.1586,"EPHEMERIS_TYPE":0,"CLASSIFICATION_TYPE":"U","NORAD_CAT_ID":49100,"ELEMENT_SET_NO":999,"REV_AT_EPOCH":22993,"BSTAR":3.2542e-05,"MEAN_MOTION_DOT":2.6e-07,"MEAN_MOTION_DDOT":0.0},{"OBJECT_NAME":"ONEWEB-0315","OBJECT_ID":"2021-075AC","EPOCH":"2026-05-20T07:20:12.005664","MEAN_MOTION":13.12440542,"ECCENTRICITY":0.0002156,"INCLINATION":87.8963,"RA_OF_ASC_NODE":356.1884,"ARG_OF_PERICENTER":89.9366,"MEAN_ANOMALY":270.2009,"EPHEMERIS_TYPE":0,"CLASSIFICATION_TYPE":"U","NORAD_CAT_ID":49101,"ELEMENT_SET_NO":999,"REV_AT_EPOCH":23151,"BSTAR":-0.00070343,"MEAN_MOTION_DOT":-2.4e-06,"MEAN_MOTION_DDOT":0.0},{"OBJECT_NAME":"ONEWEB-0316","OBJECT_ID":"2021-075AD","EPOCH":"2026-05-20T12:57:15.710688","MEAN_MOTION":13.18684751,"ECCENTRICITY":0.0001902,"INCLINATION":87.9162,"RA_OF_ASC_NODE":340.9602,"ARG_OF_PERICENTER":89.6539,"MEAN_ANOMALY":270.4812,"EPHEMERIS_TYPE":0,"CLASSIFICATION_TYPE":"U","NORAD_CAT_ID":49102,"ELEMENT_SET_NO":999,"REV_AT_EPOCH":23356,"BSTAR":-0.00019726,"MEAN_MOTION_DOT":-6.5e-07,"MEAN_MOTION_DDOT":0.0},{"OBJECT_NAME":"ONEWEB-0317","OBJECT_ID":"2021-075AE","EPOCH":"2026-05-20T07:25:04.490400","MEAN_MOTION":13.12440898,"ECCENTRICITY":0.0001163,"INCLINATION":87.8962,"RA_OF_ASC_NODE":356.2112,"ARG_OF_PERICENTER":71.5713,"MEAN_ANOMALY":288.5542,"EPHEMERIS_TYPE":0,"CLASSIFICATION_TYPE":"U","NORAD_CAT_ID":49103,"ELEMENT_SET_NO":999,"REV_AT_EPOCH":23153,"BSTAR":-0.0008638200000000001,"MEAN_MOTION_DOT":-2.98e-06,"MEAN_MOTION_DDOT":0.0},{"OBJECT_NAME":"ONEWEB-0318","OBJECT_ID":"2021-075AF","EPOCH":"2026-05-20T07:24:37.012608","MEAN_MOTION":13.18684555,"ECCENTRICITY":0.0002099,"INCLINATION":87.9172,"RA_OF_ASC_NODE":341.0051,"ARG_OF_PERICENTER":91.2308,"MEAN_ANOMALY":268.9065,"EPHEMERIS_TYPE":0,"CLASSIFICATION_TYPE":"U","NORAD_CAT_ID":49104,"ELEMENT_SET_NO":999,"REV_AT_EPOCH":23349,"BSTAR":-0.00021858,"MEAN_MOTION_DOT":-7.3e-07,"MEAN_MOTION_DDOT":0.0},{"OBJECT_NAME":"ONEWEB-0319","OBJECT_ID":"2021-075AG","EPOCH":"2026-05-20T09:08:17.926656","MEAN_MOTION":13.17650375,"ECCENTRICITY":0.0002393,"INCLINATION":87.9154,"RA_OF_ASC_NODE":11.3972,"ARG_OF_PERICENTER":89.6075,"MEAN_ANOMALY":270.5331,"EPHEMERIS_TYPE":0,"CLASSIFICATION_TYPE":"U","NORAD_CAT_ID":49105,"ELEMENT_SET_NO":999,"REV_AT_EPOCH":22994,"BSTAR":-0.00021469,"MEAN_MOTION_DOT":-7e-07,"MEAN_MOTION_DDOT":0.0},{"OBJECT_NAME":"ONEWEB-0323","OBJECT_ID":"2021-075AH","EPOCH":"2026-05-20T14:17:22.900416","MEAN_MOTION":13.12441049,"ECCENTRICITY":0.0002254,"INCLINATION":87.8965,"RA_OF_ASC_NODE":356.1358,"ARG_OF_PERICENTER":95.5432,"MEAN_ANOMALY":264.5953,"EPHEMERIS_TYPE":0,"CLASSIFICATION_TYPE":"U","NORAD_CAT_ID":49106,"ELEMENT_SET_NO":999,"REV_AT_EPOCH":23093,"BSTAR":0.0008623600000000001,"MEAN_MOTION_DOT":3.23e-06,"MEAN_MOTION_DDOT":0.0},{"OBJECT_NAME":"ONEWEB-0329","OBJECT_ID":"2021-075AJ","EPOCH":"2026-05-20T09:20:27.139200","MEAN_MOTION":13.17647346,"ECCENTRICITY":0.0001937,"INCLINATION":87.9155,"RA_OF_ASC_NODE":11.3964,"ARG_OF_PERICENTER":89.0116,"MEAN_ANOMALY":271.1237,"EPHEMERIS_TYPE":0,"CLASSIFICATION_TYPE":"U","NORAD_CAT_ID":49107,"ELEMENT_SET_NO":999,"REV_AT_EPOCH":22992,"BSTAR":0.0013252000000000001,"MEAN_MOTION_DOT":5.27e-06,"MEAN_MOTION_DDOT":0.0},{"OBJECT_NAME":"ONEWEB-0330","OBJECT_ID":"2021-075AK","EPOCH":"2026-05-20T08:05:20.428800","MEAN_MOTION":13.17648528,"ECCENTRICITY":0.00017,"INCLINATION":87.916,"RA_OF_ASC_NODE":11.4265,"ARG_OF_PERICENTER":90.5699,"MEAN_ANOMALY":269.5628,"EPHEMERIS_TYPE":0,"CLASSIFICATION_TYPE":"U","NORAD_CAT_ID":49108,"ELEMENT_SET_NO":999,"REV_AT_EPOCH":22995,"BSTAR":-0.00011059,"MEAN_MOTION_DOT":-3e-07,"MEAN_MOTION_DDOT":0.0},{"OBJECT_NAME":"ONEWEB-0292","OBJECT_ID":"2021-083A","EPOCH":"2026-05-20T12:18:50.118912","MEAN_MOTION":13.13471252,"ECCENTRICITY":0.0001953,"INCLINATION":87.8931,"RA_OF_ASC_NODE":325.7548,"ARG_OF_PERICENTER":91.9669,"MEAN_ANOMALY":268.1684,"EPHEMERIS_TYPE":0,"CLASSIFICATION_TYPE":"U","NORAD_CAT_ID":49186,"ELEMENT_SET_NO":999,"REV_AT_EPOCH":22729,"BSTAR":0.0006570300000000001,"MEAN_MOTION_DOT":2.53e-06,"MEAN_MOTION_DDOT":0.0},{"OBJECT_NAME":"ONEWEB-0303","OBJECT_ID":"2021-083B","EPOCH":"2026-05-20T07:19:45.822144","MEAN_MOTION":13.18684807,"ECCENTRICITY":0.0002018,"INCLINATION":87.9164,"RA_OF_ASC_NODE":341.006,"ARG_OF_PERICENTER":91.2015,"MEAN_ANOMALY":268.9349,"EPHEMERIS_TYPE":0,"CLASSIFICATION_TYPE":"U","NORAD_CAT_ID":49187,"ELEMENT_SET_NO":999,"REV_AT_EPOCH":22630,"BSTAR":-0.00018626000000000002,"MEAN_MOTION_DOT":-6.1e-07,"MEAN_MOTION_DDOT":0.0},{"OBJECT_NAME":"ONEWEB-0306","OBJECT_ID":"2021-083C","EPOCH":"2026-05-20T07:05:11.709888","MEAN_MOTION":13.18685036,"ECCENTRICITY":0.0001642,"INCLINATION":87.9171,"RA_OF_ASC_NODE":340.9941,"ARG_OF_PERICENTER":86.1234,"MEAN_ANOMALY":274.0086,"EPHEMERIS_TYPE":0,"CLASSIFICATION_TYPE":"U","NORAD_CAT_ID":49188,"ELEMENT_SET_NO":999,"REV_AT_EPOCH":22634,"BSTAR":4.4983000000000006e-05,"MEAN_MOTION_DOT":3.1e-07,"MEAN_MOTION_DDOT":0.0},{"OBJECT_NAME":"ONEWEB-0307","OBJECT_ID":"2021-083D","EPOCH":"2026-05-20T12:10:18.849504","MEAN_MOTION":13.13468409,"ECCENTRICITY":0.0001889,"INCLINATION":87.8941,"RA_OF_ASC_NODE":325.7506,"ARG_OF_PERICENTER":93.7365,"MEAN_ANOMALY":266.398,"EPHEMERIS_TYPE":0,"CLASSIFICATION_TYPE":"U","NORAD_CAT_ID":49189,"ELEMENT_SET_NO":999,"REV_AT_EPOCH":22729,"BSTAR":0.00076291,"MEAN_MOTION_DOT":2.91e-06,"MEAN_MOTION_DDOT":0.0},{"OBJECT_NAME":"ONEWEB-0320","OBJECT_ID":"2021-083E","EPOCH":"2026-05-20T13:02:07.293408","MEAN_MOTION":13.18686223,"ECCENTRICITY":0.0001773,"INCLINATION":87.9162,"RA_OF_ASC_NODE":340.966,"ARG_OF_PERICENTER":86.4414,"MEAN_ANOMALY":273.6921,"EPHEMERIS_TYPE":0,"CLASSIFICATION_TYPE":"U","NORAD_CAT_ID":49190,"ELEMENT_SET_NO":999,"REV_AT_EPOCH":22633,"BSTAR":-0.00012107,"MEAN_MOTION_DOT":-3.5e-07,"MEAN_MOTION_DDOT":0.0},{"OBJECT_NAME":"ONEWEB-0321","OBJECT_ID":"2021-083F","EPOCH":"2026-05-20T15:00:48.877344","MEAN_MOTION":13.20770275,"ECCENTRICITY":0.0001627,"INCLINATION":87.9171,"RA_OF_ASC_NODE":279.9312,"ARG_OF_PERICENTER":94.855,"MEAN_ANOMALY":265.2769,"EPHEMERIS_TYPE":0,"CLASSIFICATION_TYPE":"U","NORAD_CAT_ID":49191,"ELEMENT_SET_NO":999,"REV_AT_EPOCH":23319,"BSTAR":0.00026898,"MEAN_MOTION_DOT":1.22e-06,"MEAN_MOTION_DDOT":0.0}]